start=new Date('2022-10-27T00:00:00.000Z').valueOf();
sats=[{"MEAN_ELEMENT_THEORY":"SGP4","TLE_LINE2":"2 48320  53.0541 224.1029 0001400  68.6771 291.4367 15.06398360 82617","MEAN_MOTION":"15.06398360","APOAPSIS":"548.188","DECAY_DATE":null,"PERIAPSIS":"546.249","MEAN_ANOMALY":"291.4367","LAUNCH_DATE":"2021-04-29","REV_AT_EPOCH":"8261","RA_OF_ASC_NODE":"224.1029","RCS_SIZE":"LARGE","OBJECT_TYPE":"PAYLOAD","TIME_SYSTEM":"UTC","ARG_OF_PERICENTER":"68.6771","SEMIMAJOR_AXIS":"6925.354","SITE":"AFETR","CLASSIFICATION_TYPE":"U","EPOCH":"2022-10-26T12:20:05.794080","OBJECT_NAME":"STARLINK-2029","NORAD_CAT_ID":"48320","BSTAR":"0.00011411000000","REF_FRAME":"TEME","PERIOD":"95.592","INCLINATION":"53.0541","OBJECT_ID":"2021-036AW","CENTER_NAME":"EARTH","ECCENTRICITY":"0.00014000","TLE_LINE1":"1 48320U 21036AW  22299.51395595  .00001419  00000-0  11411-3 0  9991","MEAN_MOTION_DOT":"0.00001419","GP_ID":"216207773","EPHEMERIS_TYPE":"0","MEAN_MOTION_DDOT":"0.0000000000000","ELEMENT_SET_NO":"999","FILE":"3634846","COUNTRY_CODE":"US"},{"MEAN_MOTION":"15.06388644","MEAN_ELEMENT_THEORY":"SGP4","TLE_LINE2":"2 48321  53.0543 225.0105 0001664  54.7181 305.3964 15.06388644 82586","DECAY_DATE":null,"APOAPSIS":"548.401","MEAN_ANOMALY":"305.3964","PERIAPSIS":"546.096","LAUNCH_DATE":"2021-04-29","REV_AT_EPOCH":"8258","TIME_SYSTEM":"UTC","OBJECT_TYPE":"PAYLOAD","RCS_SIZE":"LARGE","RA_OF_ASC_NODE":"225.0105","ARG_OF_PERICENTER":"54.7181","SEMIMAJOR_AXIS":"6925.383","CLASSIFICATION_TYPE":"U","SITE":"AFETR","NORAD_CAT_ID":"48321","OBJECT_NAME":"STARLINK-2457","EPOCH":"2022-10-26T07:28:11.034048","CENTER_NAME":"EARTH","REF_FRAME":"TEME","BSTAR":"0.00021382000000","PERIOD":"95.593","OBJECT_ID":"2021-036AX","INCLINATION":"53.0543","TLE_LINE1":"1 48321U 21036AX  22299.31123882  .00002904  00000-0  21382-3 0  9996","ECCENTRICITY":"0.00016640","MEAN_MOTION_DOT":"0.00002904","GP_ID":"216208500","EPHEMERIS_TYPE":"0","MEAN_MOTION_DDOT":"0.0000000000000","ELEMENT_SET_NO":"999","FILE":"3634846","COUNTRY_CODE":"US"},{"MEAN_MOTION_DOT":"0.00002373","EPHEMERIS_TYPE":"0","GP_ID":"216207274","MEAN_MOTION_DDOT":"0.0000000000000","TLE_LINE1":"1 48322U 21036AY  22299.50658164  .00002373  00000-0  17816-3 0  9991","ECCENTRICITY":"0.00015570","CENTER_NAME":"EARTH","BSTAR":"0.00017816000000","REF_FRAME":"TEME","OBJECT_ID":"2021-036AY","PERIOD":"95.592","INCLINATION":"53.0550","NORAD_CAT_ID":"48322","EPOCH":"2022-10-26T12:09:28.653696","OBJECT_NAME":"STARLINK-2477","FILE":"3634846","COUNTRY_CODE":"US","ELEMENT_SET_NO":"999","MEAN_ANOMALY":"285.0499","PERIAPSIS":"546.134","DECAY_DATE":null,"APOAPSIS":"548.291","MEAN_MOTION":"15.06400363","MEAN_ELEMENT_THEORY":"SGP4","TLE_LINE2":"2 48322  53.0550 224.1341 0001557  75.0662 285.0499 15.06400363 82612","CLASSIFICATION_TYPE":"U","SITE":"AFETR","ARG_OF_PERICENTER":"75.0662","SEMIMAJOR_AXIS":"6925.347","TIME_SYSTEM":"UTC","RCS_SIZE":"LARGE","OBJECT_TYPE":"PAYLOAD","RA_OF_ASC_NODE":"224.1341","LAUNCH_DATE":"2021-04-29","REV_AT_EPOCH":"8261"},{"FILE":"3634846","COUNTRY_CODE":"US","ELEMENT_SET_NO":"999","MEAN_MOTION_DOT":"0.00002556","GP_ID":"216207523","EPHEMERIS_TYPE":"0","MEAN_MOTION_DDOT":"0.0000000000000","TLE_LINE1":"1 48323U 21036AZ  22299.50290235  .00002556  00000-0  19054-3 0  9992","ECCENTRICITY":"0.00016550","CENTER_NAME":"EARTH","BSTAR":"0.00019054000000","REF_FRAME":"TEME","PERIOD":"95.593","OBJECT_ID":"2021-036AZ","INCLINATION":"53.0549","NORAD_CAT_ID":"48323","OBJECT_NAME":"STARLINK-2515","EPOCH":"2022-10-26T12:04:10.763040","CLASSIFICATION_TYPE":"U","SITE":"AFETR","ARG_OF_PERICENTER":"59.5286","SEMIMAJOR_AXIS":"6925.397","TIME_SYSTEM":"UTC","RA_OF_ASC_NODE":"224.1391","RCS_SIZE":"LARGE","OBJECT_TYPE":"PAYLOAD","LAUNCH_DATE":"2021-04-29","REV_AT_EPOCH":"8261","MEAN_ANOMALY":"300.5867","PERIAPSIS":"546.116","APOAPSIS":"548.408","DECAY_DATE":null,"MEAN_MOTION":"15.06384107","MEAN_ELEMENT_THEORY":"SGP4","TLE_LINE2":"2 48323  53.0549 224.1391 0001655  59.5286 300.5867 15.06384107 82613"},{"FILE":"3634846","COUNTRY_CODE":"US","ELEMENT_SET_NO":"999","TLE_LINE1":"1 48324U 21036BA  22299.49826789  .00001000  00000-0  86057-4 0  9991","ECCENTRICITY":"0.00017000","MEAN_MOTION_DOT":"0.00001000","GP_ID":"216208274","MEAN_MOTION_DDOT":"0.0000000000000","EPHEMERIS_TYPE":"0","NORAD_CAT_ID":"48324","OBJECT_NAME":"STARLINK-2527","EPOCH":"2022-10-26T11:57:30.345696","CENTER_NAME":"EARTH","BSTAR":"0.00008605700000","REF_FRAME":"TEME","OBJECT_ID":"2021-036BA","PERIOD":"95.593","INCLINATION":"53.0574","ARG_OF_PERICENTER":"108.2107","SEMIMAJOR_AXIS":"6925.374","CLASSIFICATION_TYPE":"U","SITE":"AFETR","LAUNCH_DATE":"2021-04-29","REV_AT_EPOCH":"8260","TIME_SYSTEM":"UTC","RCS_SIZE":"LARGE","OBJECT_TYPE":"PAYLOAD","RA_OF_ASC_NODE":"224.1488","MEAN_ANOMALY":"251.9067","PERIAPSIS":"546.061","MEAN_MOTION":"15.06391761","MEAN_ELEMENT_THEORY":"SGP4","TLE_LINE2":"2 48324  53.0574 224.1488 0001700 108.2107 251.9067 15.06391761 82608","APOAPSIS":"548.416","DECAY_DATE":null},{"DECAY_DATE":null,"APOAPSIS":"548.339","MEAN_MOTION":"15.06387781","MEAN_ELEMENT_THEORY":"SGP4","TLE_LINE2":"2 48325  53.0540 225.3787 0001571  70.7410 289.3748 15.06387781 82577","MEAN_ANOMALY":"289.3748","PERIAPSIS":"546.163","TIME_SYSTEM":"UTC","OBJECT_TYPE":"PAYLOAD","RCS_SIZE":"LARGE","RA_OF_ASC_NODE":"225.3787","LAUNCH_DATE":"2021-04-29","REV_AT_EPOCH":"8257","CLASSIFICATION_TYPE":"U","SITE":"AFETR","ARG_OF_PERICENTER":"70.7410","SEMIMAJOR_AXIS":"6925.386","CENTER_NAME":"EARTH","BSTAR":"-0.00004201200000","REF_FRAME":"TEME","PERIOD":"95.593","INCLINATION":"53.0540","OBJECT_ID":"2021-036BB","NORAD_CAT_ID":"48325","OBJECT_NAME":"STARLINK-2495","EPOCH":"2022-10-26T05:31:24.437280","MEAN_MOTION_DOT":"-0.00000907","EPHEMERIS_TYPE":"0","GP_ID":"216208000","MEAN_MOTION_DDOT":"0.0000000000000","TLE_LINE1":"1 48325U 21036BB  22299.23014395 -.00000907  00000-0 -42012-4 0  9996","ECCENTRICITY":"0.00015710","ELEMENT_SET_NO":"999","FILE":"3634846","COUNTRY_CODE":"US"},{"PERIAPSIS":"546.258","MEAN_ANOMALY":"289.9402","TLE_LINE2":"2 48326  53.0545 224.2026 0001430  70.1741 289.9402 15.06388667 82614","MEAN_ELEMENT_THEORY":"SGP4","MEAN_MOTION":"15.06388667","DECAY_DATE":null,"APOAPSIS":"548.239","SEMIMAJOR_AXIS":"6925.383","ARG_OF_PERICENTER":"70.1741","SITE":"AFETR","CLASSIFICATION_TYPE":"U","REV_AT_EPOCH":"8261","LAUNCH_DATE":"2021-04-29","RA_OF_ASC_NODE":"224.2026","RCS_SIZE":"MEDIUM","OBJECT_TYPE":"PAYLOAD","TIME_SYSTEM":"UTC","ECCENTRICITY":"0.00014300","TLE_LINE1":"1 48326U 21036BC  22299.49184502 -.00000376  00000-0 -63430-5 0  9991","GP_ID":"216206774","EPHEMERIS_TYPE":"0","MEAN_MOTION_DDOT":"0.0000000000000","MEAN_MOTION_DOT":"-0.00000376","OBJECT_NAME":"STARLINK-2498","EPOCH":"2022-10-26T11:48:15.409728","NORAD_CAT_ID":"48326","INCLINATION":"53.0545","PERIOD":"95.593","OBJECT_ID":"2021-036BC","REF_FRAME":"TEME","BSTAR":"-0.00000634300000","CENTER_NAME":"EARTH","COUNTRY_CODE":"US","FILE":"3634846","ELEMENT_SET_NO":"999"},{"GP_ID":"216207023","MEAN_MOTION_DDOT":"0.0000000000000","EPHEMERIS_TYPE":"0","MEAN_MOTION_DOT":"0.00000585","TLE_LINE1":"1 48327U 21036BD  22299.48815123  .00000585  00000-0  58190-4 0  9997","ECCENTRICITY":"0.00014610","CENTER_NAME":"EARTH","OBJECT_ID":"2021-036BD","PERIOD":"95.592","INCLINATION":"53.0545","BSTAR":"0.00005819000000","REF_FRAME":"TEME","NORAD_CAT_ID":"48327","OBJECT_NAME":"STARLINK-2502","EPOCH":"2022-10-26T11:42:56.266272","COUNTRY_CODE":"US","FILE":"3634846","ELEMENT_SET_NO":"999","MEAN_ANOMALY":"295.3726","PERIAPSIS":"546.216","DECAY_DATE":null,"APOAPSIS":"548.239","MEAN_MOTION":"15.06395431","TLE_LINE2":"2 48327  53.0545 224.2179 0001461  64.7414 295.3726 15.06395431 82611","MEAN_ELEMENT_THEORY":"SGP4","CLASSIFICATION_TYPE":"U","SITE":"AFETR","SEMIMAJOR_AXIS":"6925.363","ARG_OF_PERICENTER":"64.7414","TIME_SYSTEM":"UTC","RCS_SIZE":"LARGE","OBJECT_TYPE":"PAYLOAD","RA_OF_ASC_NODE":"224.2179","REV_AT_EPOCH":"8261","LAUNCH_DATE":"2021-04-29"},{"ELEMENT_SET_NO":"999","COUNTRY_CODE":"US","FILE":"3634846","EPOCH":"2022-10-26T05:14:06.375840","OBJECT_NAME":"STARLINK-2504","NORAD_CAT_ID":"48328","OBJECT_ID":"2021-036BE","PERIOD":"95.592","INCLINATION":"53.0535","REF_FRAME":"TEME","BSTAR":"0.00010748000000","CENTER_NAME":"EARTH","ECCENTRICITY":"0.00015290","TLE_LINE1":"1 48328U 21036BE  22299.21812935  .00001320  00000-0  10748-3 0  9991","EPHEMERIS_TYPE":"0","GP_ID":"216207774","MEAN_MOTION_DDOT":"0.0000000000000","MEAN_MOTION_DOT":"0.00001320","REV_AT_EPOCH":"8257","LAUNCH_DATE":"2021-04-29","RCS_SIZE":"LARGE","RA_OF_ASC_NODE":"225.4211","OBJECT_TYPE":"PAYLOAD","TIME_SYSTEM":"UTC","SEMIMAJOR_AXIS":"6925.347","ARG_OF_PERICENTER":"66.2171","SITE":"AFETR","CLASSIFICATION_TYPE":"U","TLE_LINE2":"2 48328  53.0535 225.4211 0001529  66.2171 293.8978 15.06400488 82579","MEAN_ELEMENT_THEORY":"SGP4","MEAN_MOTION":"15.06400488","APOAPSIS":"548.271","DECAY_DATE":null,"PERIAPSIS":"546.153","MEAN_ANOMALY":"293.8978"},{"EPHEMERIS_TYPE":"0","GP_ID":"216208501","MEAN_MOTION_DDOT":"0.0000000000000","MEAN_MOTION_DOT":"0.00000141","TLE_LINE1":"1 48329U 21036BF  22299.21538775  .00000141  00000-0  28404-4 0  9998","ECCENTRICITY":"0.00021690","CENTER_NAME":"EARTH","PERIOD":"95.592","INCLINATION":"53.0546","OBJECT_ID":"2021-036BF","REF_FRAME":"TEME","BSTAR":"0.00002840400000","NORAD_CAT_ID":"48329","EPOCH":"2022-10-26T05:10:09.501600","OBJECT_NAME":"STARLINK-2510","COUNTRY_CODE":"US","FILE":"3634846","ELEMENT_SET_NO":"999","MEAN_ANOMALY":"320.2545","PERIAPSIS":"545.699","DECAY_DATE":null,"APOAPSIS":"548.703","MEAN_MOTION":"15.06404006","TLE_LINE2":"2 48329  53.0546 225.4357 0002169  39.8603 320.2545 15.06404006 82575","MEAN_ELEMENT_THEORY":"SGP4","CLASSIFICATION_TYPE":"U","SITE":"AFETR","SEMIMAJOR_AXIS":"6925.336","ARG_OF_PERICENTER":"39.8603","TIME_SYSTEM":"UTC","RCS_SIZE":"LARGE","RA_OF_ASC_NODE":"225.4357","OBJECT_TYPE":"PAYLOAD","REV_AT_EPOCH":"8257","LAUNCH_DATE":"2021-04-29"}];
